[
  {
    "ORDINAL": "1",
    "COMMENT": "GENERATED VIA SPACETRACK.ORG API",
    "ORIGINATOR": "JSPOC",
    "NORAD_CAT_ID": "72",
    "OBJECT_NAME": "SL-6 R/B",
    "OBJECT_TYPE": "ROCKET BODY",
    "CLASSIFICATION_TYPE": "U",
    "INTLDES": "61002B",
    "EPOCH": "1961-02-10 06:10:46",
    "EPOCH_MICROSECONDS": "119071",
    "MEAN_MOTION": "16.20395132",
    "ECCENTRICITY": "0.0014185",
    "INCLINATION": "64.9004",
    "RA_OF_ASC_NODE": "166.3199",
    "ARG_OF_PERICENTER": "50.9188",
    "MEAN_ANOMALY": "309.1453",
    "EPHEMERIS_TYPE": "0",
    "ELEMENT_SET_NO": "999",
    "REV_AT_EPOCH": "100",
    "BSTAR": "0",
    "MEAN_MOTION_DOT": "0.01981552",
    "MEAN_MOTION_DDOT": "0",
    "FILE": "33907",
    "TLE_LINE0": "0 SL-6 R/B",
    "TLE_LINE1": "1 00072U 61002  B 61041.25747823  .01981552 +00000-0 +00000-0 0  9999",
    "TLE_LINE2": "2 00072 064.9004 166.3199 0014185 050.9188 309.1453 16.20395132001007",
    "OBJECT_ID": "1961-002B",
    "OBJECT_NUMBER": "72",
    "SEMIMAJOR_AXIS": "6596.620",
    "PERIOD": "88.867",
    "APOGEE": "227.842",
    "PERIGEE": "209.128"
  },
  {
    "ORDINAL": "1",
    "COMMENT": "GENERATED VIA SPACETRACK.ORG API",
    "ORIGINATOR": "JSPOC",
    "NORAD_CAT_ID": "73",
    "OBJECT_NAME": "SL-6 DEB",
    "OBJECT_TYPE": "DEBRIS",
    "CLASSIFICATION_TYPE": "U",
    "INTLDES": "61002C",
    "EPOCH": "1961-03-15 20:43:02",
    "EPOCH_MICROSECONDS": "308223",
    "MEAN_MOTION": "16.32431997",
    "ECCENTRICITY": "0.0062814",
    "INCLINATION": "64.8865",
    "RA_OF_ASC_NODE": "42.5218",
    "ARG_OF_PERICENTER": "57.7291",
    "MEAN_ANOMALY": "302.5799",
    "EPHEMERIS_TYPE": "0",
    "ELEMENT_SET_NO": "999",
    "REV_AT_EPOCH": "640",
    "BSTAR": "0",
    "MEAN_MOTION_DOT": "0.02217689",
    "MEAN_MOTION_DDOT": "0",
    "FILE": "33907",
    "TLE_LINE0": "0 SL-6 DEB",
    "TLE_LINE1": "1 00073U 61002  C 61074.86322116  .02217689 +00000-0 +00000-0 0  9991",
    "TLE_LINE2": "2 00073 064.8865 042.5218 0062814 057.7291 302.5799 16.32431997006403",
    "OBJECT_ID": "1961-002C",
    "OBJECT_NUMBER": "73",
    "SEMIMAJOR_AXIS": "6564.153",
    "PERIOD": "88.211",
    "APOGEE": "227.250",
    "PERIGEE": "144.786"
  },
  {
    "ORDINAL": "1",
    "COMMENT": "GENERATED VIA SPACETRACK.ORG API",
    "ORIGINATOR": "JSPOC",
    "NORAD_CAT_ID": "74",
    "OBJECT_NAME": "DELTA 1 DEB",
    "OBJECT_TYPE": "DEBRIS",
    "CLASSIFICATION_TYPE": "U",
    "INTLDES": "60016C",
    "EPOCH": "1989-05-07 00:12:43",
    "EPOCH_MICROSECONDS": "236864",
    "MEAN_MOTION": "16.11032606",
    "ECCENTRICITY": "0.0009533",
    "INCLINATION": "48.5374",
    "RA_OF_ASC_NODE": "350.77",
    "ARG_OF_PERICENTER": "238.7285",
    "MEAN_ANOMALY": "120.985",
    "EPHEMERIS_TYPE": "0",
    "ELEMENT_SET_NO": "999",
    "REV_AT_EPOCH": "54541",
    "BSTAR": "0.002212",
    "MEAN_MOTION_DOT": "0.02098965",
    "MEAN_MOTION_DDOT": "0.0049187",
    "FILE": "131042",
    "TLE_LINE0": "0 DELTA 1 DEB",
    "TLE_LINE1": "1 00074U 60016  C 89127.00883376  .02098965 +49187-2 +22120-2 0  9995",
    "TLE_LINE2": "2 00074 048.5374 350.7700 0009533 238.7285 120.9850 16.11032606545411",
    "OBJECT_ID": "1960-016C",
    "OBJECT_NUMBER": "74",
    "SEMIMAJOR_AXIS": "6622.153",
    "PERIOD": "89.383",
    "APOGEE": "250.331",
    "PERIGEE": "237.705"
  },
  {
    "ORDINAL": "1",
    "COMMENT": "GENERATED VIA SPACETRACK.ORG API",
    "ORIGINATOR": "JSPOC",
    "NORAD_CAT_ID": "75",
    "OBJECT_NAME": "DELTA 1 DEB",
    "OBJECT_TYPE": "DEBRIS",
    "CLASSIFICATION_TYPE": "U",
    "INTLDES": "60016D",
    "EPOCH": "1990-01-23 15:43:13",
    "EPOCH_MICROSECONDS": "859327",
    "MEAN_MOTION": "16.20974718",
    "ECCENTRICITY": "0.0012245",
    "INCLINATION": "48.5003",
    "RA_OF_ASC_NODE": "110.579",
    "ARG_OF_PERICENTER": "332.5609",
    "MEAN_ANOMALY": "27.6347",
    "EPHEMERIS_TYPE": "0",
    "ELEMENT_SET_NO": "999",
    "REV_AT_EPOCH": "99566",
    "BSTAR": "0.00168",
    "MEAN_MOTION_DOT": "0.03695442",
    "MEAN_MOTION_DDOT": "1.5733e-05",
    "FILE": "34712",
    "TLE_LINE0": "0 DELTA 1 DEB",
    "TLE_LINE1": "1 00075U 60016  D 90023.65502152  .03695442 +15733-4 +16800-2 0  9998",
    "TLE_LINE2": "2 00075 048.5003 110.5790 0012245 332.5609 027.6347 16.20974718995668",
    "OBJECT_ID": "1960-016D",
    "OBJECT_NUMBER": "75",
    "SEMIMAJOR_AXIS": "6595.047",
    "PERIOD": "88.835",
    "APOGEE": "224.988",
    "PERIGEE": "208.837"
  },
  {
    "ORDINAL": "1",
    "COMMENT": "GENERATED VIA SPACETRACK.ORG API",
    "ORIGINATOR": "JSPOC",
    "NORAD_CAT_ID": "76",
    "OBJECT_NAME": "SL-6 R/B",
    "OBJECT_TYPE": "ROCKET BODY",
    "CLASSIFICATION_TYPE": "U",
    "INTLDES": "61003B",
    "EPOCH": "1961-02-15 02:50:36",
    "EPOCH_MICROSECONDS": "236544",
    "MEAN_MOTION": "16.18307633",
    "ECCENTRICITY": "0.0020416",
    "INCLINATION": "65.0109",
    "RA_OF_ASC_NODE": "175.1827",
    "ARG_OF_PERICENTER": "19.899",
    "MEAN_ANOMALY": "340.1414",
    "EPHEMERIS_TYPE": "0",
    "ELEMENT_SET_NO": "999",
    "REV_AT_EPOCH": "50",
    "BSTAR": "0",
    "MEAN_MOTION_DOT": "0.02053904",
    "MEAN_MOTION_DDOT": "0",
    "FILE": "33907",
    "TLE_LINE0": "0 SL-6 R/B",
    "TLE_LINE1": "1 00076U 61003  B 61046.11847496  .02053904 +00000-0 +00000-0 0  9993",
    "TLE_LINE2": "2 00076 065.0109 175.1827 0020416 019.8990 340.1414 16.18307633000506",
    "OBJECT_ID": "1961-003B",
    "OBJECT_NUMBER": "76",
    "SEMIMAJOR_AXIS": "6602.292",
    "PERIOD": "88.981",
    "APOGEE": "237.636",
    "PERIGEE": "210.677"
  },
  {
    "ORDINAL": "1",
    "COMMENT": "GENERATED VIA SPACETRACK.ORG API",
    "ORIGINATOR": "JSPOC",
    "NORAD_CAT_ID": "77",
    "OBJECT_NAME": "SPUTNIK 8",
    "OBJECT_TYPE": "PAYLOAD",
    "CLASSIFICATION_TYPE": "U",
    "INTLDES": "61003C",
    "EPOCH": "1961-02-23 04:28:32",
    "EPOCH_MICROSECONDS": "741183",
    "MEAN_MOTION": "16.25160317",
    "ECCENTRICITY": "0.0055625",
    "INCLINATION": "65.0109",
    "RA_OF_ASC_NODE": "145.423",
    "ARG_OF_PERICENTER": "17.7415",
    "MEAN_ANOMALY": "342.3569",
    "EPHEMERIS_TYPE": "0",
    "ELEMENT_SET_NO": "999",
    "REV_AT_EPOCH": "180",
    "BSTAR": "0",
    "MEAN_MOTION_DOT": "0.02195001",
    "MEAN_MOTION_DDOT": "0",
    "FILE": "33907",
    "TLE_LINE0": "0 SPUTNIK 8",
    "TLE_LINE1": "1 00077U 61003  C 61054.18649006  .02195001 +00000-0 +00000-0 0  9992",
    "TLE_LINE2": "2 00077 065.0109 145.4230 0055625 017.7415 342.3569 16.25160317001807",
    "OBJECT_ID": "1961-003C",
    "OBJECT_NUMBER": "77",
    "SEMIMAJOR_AXIS": "6583.719",
    "PERIOD": "88.606",
    "APOGEE": "242.206",
    "PERIGEE": "168.962"
  },
  {
    "ORDINAL": "1",
    "COMMENT": "GENERATED VIA SPACETRACK.ORG API",
    "ORIGINATOR": "JSPOC",
    "NORAD_CAT_ID": "83",
    "OBJECT_NAME": "DISCOVERER 20",
    "OBJECT_TYPE": "PAYLOAD",
    "CLASSIFICATION_TYPE": "U",
    "INTLDES": "61005A",
    "EPOCH": "1962-07-25 16:52:24",
    "EPOCH_MICROSECONDS": "556799",
    "MEAN_MOTION": "16.25710547",
    "ECCENTRICITY": "0",
    "INCLINATION": "80.8319",
    "RA_OF_ASC_NODE": "224.151",
    "ARG_OF_PERICENTER": "103.6165",
    "MEAN_ANOMALY": "238.9354",
    "EPHEMERIS_TYPE": "0",
    "ELEMENT_SET_NO": "999",
    "REV_AT_EPOCH": "8075",
    "BSTAR": "0",
    "MEAN_MOTION_DOT": "0.02507153",
    "MEAN_MOTION_DDOT": "0.025804",
    "FILE": "33908",
    "TLE_LINE0": "0 DISCOVERER 20",
    "TLE_LINE1": "1 00083U 61005  A 62206.70306200  .02507153 +25804-1 +00000-0 0  9990",
    "TLE_LINE2": "2 00083 080.8319 224.1510 0000000 103.6165 238.9354 16.25710547080751",
    "OBJECT_ID": "1961-005A",
    "OBJECT_NUMBER": "83",
    "SEMIMAJOR_AXIS": "6582.233",
    "PERIOD": "88.576",
    "APOGEE": "204.098",
    "PERIGEE": "204.098"
  },
  {
    "ORDINAL": "1",
    "COMMENT": "GENERATED VIA SPACETRACK.ORG API",
    "ORIGINATOR": "JSPOC",
    "NORAD_CAT_ID": "119",
    "OBJECT_NAME": "THOR ABLESTAR DEB",
    "OBJECT_TYPE": "DEBRIS",
    "CLASSIFICATION_TYPE": "U",
    "INTLDES": "61015D",
    "EPOCH": "2019-03-18 09:35:45",
    "EPOCH_MICROSECONDS": "971232",
    "MEAN_MOTION": "14.23192592",
    "ECCENTRICITY": "0.0103759",
    "INCLINATION": "66.7297",
    "RA_OF_ASC_NODE": "45.1021",
    "ARG_OF_PERICENTER": "9.5585",
    "MEAN_ANOMALY": "350.7451",
    "EPHEMERIS_TYPE": "0",
    "ELEMENT_SET_NO": "999",
    "REV_AT_EPOCH": "98121",
    "BSTAR": "2.9434e-05",
    "MEAN_MOTION_DOT": "-1.4e-07",
    "MEAN_MOTION_DDOT": "0",
    "FILE": "2427675",
    "TLE_LINE0": "0 THOR ABLESTAR DEB",
    "TLE_LINE1": "1   119U 61015D   19077.39983763 -.00000014 +00000-0 +29434-4 0  9998",
    "TLE_LINE2": "2   119 066.7297 045.1021 0103759 009.5585 350.7451 14.23192592981214",
    "OBJECT_ID": "1961-015D",
    "OBJECT_NUMBER": "119",
    "SEMIMAJOR_AXIS": "7192.712",
    "PERIOD": "101.180",
    "APOGEE": "889.208",
    "PERIGEE": "739.947"
  },
  {
    "ORDINAL": "1",
    "COMMENT": "GENERATED VIA SPACETRACK.ORG API",
    "ORIGINATOR": "JSPOC",
    "NORAD_CAT_ID": "120",
    "OBJECT_NAME": "THOR ABLESTAR DEB",
    "OBJECT_TYPE": "DEBRIS",
    "CLASSIFICATION_TYPE": "U",
    "INTLDES": "61015E",
    "EPOCH": "2019-03-18 12:41:40",
    "EPOCH_MICROSECONDS": "989696",
    "MEAN_MOTION": "14.25235619",
    "ECCENTRICITY": "0.0110491",
    "INCLINATION": "66.7053",
    "RA_OF_ASC_NODE": "118.8065",
    "ARG_OF_PERICENTER": "115.5208",
    "MEAN_ANOMALY": "245.7363",
    "EPHEMERIS_TYPE": "0",
    "ELEMENT_SET_NO": "999",
    "REV_AT_EPOCH": "97064",
    "BSTAR": "0.00012855",
    "MEAN_MOTION_DOT": "2.38e-06",
    "MEAN_MOTION_DDOT": "0",
    "FILE": "2427675",
    "TLE_LINE0": "0 THOR ABLESTAR DEB",
    "TLE_LINE1": "1   120U 61015E   19077.52894664 +.00000238 +00000-0 +12855-3 0  9991",
    "TLE_LINE2": "2   120 066.7053 118.8065 0110491 115.5208 245.7363 14.25235619970643",
    "OBJECT_ID": "1961-015E",
    "OBJECT_NUMBER": "120",
    "SEMIMAJOR_AXIS": "7185.837",
    "PERIOD": "101.035",
    "APOGEE": "887.099",
    "PERIGEE": "728.305"
  }
]
